[{"OBJECT_NAME":"STARLINK-4621","OBJECT_ID":"2022-105AE","EPOCH":"2026-03-09T16:00:46.917216","MEAN_MOTION":15.01252403,"ECCENTRICITY":0.00033108,"INCLINATION":97.601,"RA_OF_ASC_NODE":310.1897,"ARG_OF_PERICENTER":33.3535,"MEAN_ANOMALY":326.7897,"EPHEMERIS_TYPE":0,"CLASSIFICATION_TYPE":"U","NORAD_CAT_ID":53676,"ELEMENT_SET_NO":999,"REV_AT_EPOCH":19323,"BSTAR":-7.6560656e-5,"MEAN_MOTION_DOT":-1.041e-5,"MEAN_MOTION_DDOT":0},{"OBJECT_NAME":"COSMOS 2251 DEB","OBJECT_ID":"1993-036BPT","EPOCH":"2026-03-03T18:02:37.907232","MEAN_MOTION":15.02748901,"ECCENTRICITY":0.00784494,"INCLINATION":73.9982,"RA_OF_ASC_NODE":105.7002,"ARG_OF_PERICENTER":203.8682,"MEAN_ANOMALY":155.8863,"EPHEMERIS_TYPE":0,"CLASSIFICATION_TYPE":"U","NORAD_CAT_ID":37968,"ELEMENT_SET_NO":999,"REV_AT_EPOCH":61435,"BSTAR":0.00086959674,"MEAN_MOTION_DOT":0.0001241,"MEAN_MOTION_DDOT":0}]
